OBJECT_NAME,OBJECT_ID,EPOCH,MEAN_MOTION,ECCENTRICITY,INCLINATION,RA_OF_ASC_NODE,ARG_OF_PERICENTER,MEAN_ANOMALY,EPHEMERIS_TYPE,CLASSIFICATION_TYPE,NORAD_CAT_ID,ELEMENT_SET_NO,REV_AT_EPOCH,BSTAR,MEAN_MOTION_DOT,MEAN_MOTION_DDOT
RESOURCESAT-2A,2016-074A,2026-06-06T03:52:38.377920,14.21613528,.0003311,98.7525,230.7554,103.8282,256.3264,0,U,41877,999,49273,.13141E-3,.244E-5,0
WGS F8 (USA 272),2016-075A,2026-06-05T21:04:23.657376,1.00271120,.000031,0.0061,349.0363,351.0974,20.0920,0,U,41879,999,3470,0,-.19E-5,0
FENGYUN 4A,2016-077A,2026-06-05T22:39:40.353120,1.00275631,.0008163,2.2940,80.4054,151.7051,125.9248,0,U,41882,999,3481,0,-.344E-5,0
CYGFM05,2016-078A,2026-06-05T21:22:31.822176,15.56152582,.0007329,34.9577,335.3662,34.7933,325.3269,0,U,41884,999,52699,.41556E-3,.30137E-3,0
CYGFM04,2016-078B,2026-06-05T19:58:02.845632,15.60857106,.0006067,34.9331,304.0083,80.0343,280.1067,0,U,41885,999,52722,.43384E-3,.37639E-3,0
CYGFM02,2016-078C,2026-06-05T18:57:53.651520,15.63734478,.00070385,34.9411,299.1495,82.1301,278.0225,0,U,41886,999,52738,.43700465E-3,.4247E-3,0
CYGFM01,2016-078D,2026-06-05T21:13:17.238720,15.56811551,.000715,34.9408,336.5564,28.4006,331.7107,0,U,41887,999,52694,.42827E-3,.3184E-3,0
CYGFM08,2016-078E,2026-06-05T20:42:29.575584,15.59404697,.0008012,34.9441,316.5722,62.1858,297.9679,0,U,41888,999,52720,.44804E-3,.3678E-3,0
CYGFM07,2016-078G,2026-06-05T19:44:42.175104,15.59506302,.0006438,34.9454,305.1911,79.2850,280.8600,0,U,41890,999,52722,.45196E-3,.37229E-3,0
CYGFM03,2016-078H,2026-06-05T19:02:51.824832,15.59497263,.00060065,34.9410,307.3248,65.1599,294.9750,0,U,41891,999,52719,.4387352E-3,.36117E-3,0
ECHOSTAR 19,2016-079A,2026-06-05T14:45:55.221408,1.00272828,.00015766,0.0181,357.4978,87.3351,293.6079,0,U,41893,999,3458,0,-.126E-5,0
ARASE (ERG),2016-080A,2026-06-05T16:58:30.851328,2.57684358,.69913878,31.9519,12.8525,40.4561,354.6377,0,U,41896,999,8798,.17785476E-2,.795E-5,0
TANSAT,2016-081A,2026-06-06T05:08:29.502240,14.59941531,.0020415,98.5365,157.1478,347.1370,12.9305,0,U,41898,999,50302,.85956E-4,.362E-5,0
YIJIAN,2016-081B,2026-06-05T11:38:08.117088,14.60751586,.00206531,98.5373,154.0210,348.8438,11.2301,0,U,41899,999,50288,.15750224E-3,.719E-5,0
SPARK 1,2016-081C,2026-06-05T18:23:57.372000,14.59776375,.00236157,98.5482,150.8969,358.6038,1.5091,0,U,41900,999,50260,.15603967E-3,.697E-5,0
SPARK 2,2016-081D,2026-06-05T19:39:44.998848,14.59152687,.00253692,98.5486,146.2545,2.5179,357.6143,0,U,41901,999,50246,.15812852E-3,.697E-5,0
JCSAT-110A (JCSAT-15),2016-082A,2026-06-05T16:21:13.718592,1.00270080,.00008633,0.0170,334.4057,128.1044,146.9734,0,U,41903,999,3464,0,-.338E-5,0
STAR ONE D1,2016-082B,2026-06-05T23:23:02.783328,1.00269837,.0002088,0.0117,32.2286,55.7314,73.1884,0,U,41904,999,3466,0,-.198E-5,0
TJS-2,2017-001A,2026-06-05T23:45:51.736032,1.00272546,.0000756,0.8038,85.4837,14.6057,217.3282,0,U,41911,999,3460,0,.6E-7,0
JILIN-1 03,2017-002B,2026-06-05T22:12:04.400352,15.41296292,.0005287,97.1952,164.1707,191.3532,168.7597,0,U,41914,999,52012,.40436E-3,.16778E-3,0
IRIDIUM 106,2017-003A,2026-06-05T20:42:22.221216,14.34217659,.0001923,86.3959,93.2900,79.7637,280.3776,0,U,41917,999,49158,.70526E-5,.4E-6,0
IRIDIUM 103,2017-003B,2026-06-05T20:24:06.096384,14.34218825,.0002456,86.3960,93.1950,81.9602,278.1872,0,U,41918,999,49160,.35117E-4,.118E-5,0
IRIDIUM 109,2017-003C,2026-06-05T20:33:14.330304,14.34217605,.0002315,86.3961,93.2517,84.5900,275.5560,0,U,41919,999,49157,.644E-5,.38E-6,0
IRIDIUM 102,2017-003D,2026-06-05T19:47:34.238112,14.34217311,.0002266,86.3957,93.1886,86.9559,273.1896,0,U,41920,999,49165,.44649E-4,.145E-5,0
IRIDIUM 105,2017-003E,2026-06-05T23:49:22.027584,14.34225385,.0002455,86.3970,61.5501,86.1396,274.0080,0,U,41921,999,49353,.10023E-3,.301E-5,0
IRIDIUM 104,2017-003F,2026-06-05T20:05:50.343072,14.34217712,.0002522,86.3960,93.2259,84.6947,275.4537,0,U,41922,999,49164,.1525E-4,.62E-6,0
IRIDIUM 114,2017-003G,2026-06-05T20:14:58.284960,14.34218028,.000242,86.3958,93.2064,84.4470,275.7002,0,U,41923,999,49162,.28907E-4,.101E-5,0
IRIDIUM 108,2017-003H,2026-06-05T10:52:54.394176,14.34216576,.00021633,86.3966,61.6658,84.9680,275.1762,0,U,41924,999,49342,-.23821183E-3,-.647E-5,0
IRIDIUM 112,2017-003J,2026-06-05T19:56:42.097920,14.34218652,.0002388,86.3957,93.0548,87.5857,272.5612,0,U,41925,999,49164,.32149E-4,.11E-5,0
IRIDIUM 111,2017-003K,2026-06-05T19:38:26.304000,14.34217682,.0002326,86.3956,93.1302,85.5867,274.5594,0,U,41926,999,49162,.52642E-5,.35E-6,0
SBIRS GEO-4 (USA 273),2017-004A,2026-06-05T23:12:00.279360,1.00272437,.0002327,2.2212,42.9701,28.0283,192.3008,0,U,41937,999,3448,0,.136E-5,0
HISPASAT 36W-1,2017-006A,2026-06-05T09:55:27.215616,1.00268599,.00010139,0.0061,256.6088,170.5309,299.5722,0,U,41942,999,3412,0,-.232E-5,0
TELKOM 3S,2017-007A,2026-06-05T22:38:03.007104,1.00271985,.0002424,0.0151,288.9491,147.3495,275.6019,0,U,41944,999,3402,0,-.35E-5,0
INTELSAT 32E (IS-32E),2017-007B,2026-06-05T18:26:41.938080,1.00270705,.0000563,0.0178,344.6873,4.7820,138.2227,0,U,41945,999,3411,0,-.256E-5,0
CARTOSAT-2D,2017-008A,2026-06-05T15:10:45.234336,15.19236200,.00037278,97.4122,216.1531,285.1069,74.9753,0,U,41948,999,51582,-.99469042E-4,-.216E-4,0
SENTINEL-2B,2017-013A,2026-06-06T03:48:16.543584,14.30814337,.0001226,98.5689,232.0880,84.2600,275.8723,0,U,42063,999,48306,.10841E-3,.241E-5,0
ECHOSTAR 23,2017-014A,2026-06-04T21:35:20.092704,1.00271139,.00018595,0.0176,5.8946,69.5571,31.8276,0,U,42070,999,3380,0,-.45E-6,0
WGS F9 (USA 275),2017-016A,2026-06-05T18:35:33.589248,1.00271562,.00004995,0.0091,283.8133,146.4858,90.8043,0,U,42075,999,3378,0,-.84E-6,0
SES-10,2017-017A,2026-06-05T13:11:54.791808,1.00272878,.00030122,0.0238,37.3238,46.7131,301.0313,0,U,42432,999,3363,0,-.26E-5,0
CHINASAT 16 (SJ-13),2017-018A,2026-06-05T19:10:33.910176,1.00273863,.00037744,0.1016,92.2536,134.9826,65.1567,0,U,42662,999,3363,0,-.34E-5,0
KOREASAT 7,2017-023A,2026-06-05T22:37:25.568256,1.00273180,.0000555,0.0201,334.4079,67.4459,307.7517,0,U,42691,999,3325,0,-.349E-5,0
SGDC,2017-023B,2026-06-05T12:03:49.310784,1.00270223,.00031095,0.0184,43.4409,42.0956,274.5046,0,U,42692,999,3328,0,-.237E-5,0
GSAT-9,2017-024A,2026-06-05T23:01:46.319232,1.00273775,.000252,0.0166,288.9087,141.2754,266.9740,0,U,42695,999,3318,0,-.274E-5,0
INMARSAT 5-F4,2017-025A,2026-06-05T23:26:38.575104,1.00270107,.000032,0.0177,346.7140,43.8020,272.0294,0,U,42698,999,3316,0,.88E-6,0
SES-15,2017-026A,2026-06-05T23:10:11.514720,1.00269974,.0000645,0.0201,329.9383,94.5850,48.2612,0,U,42709,999,732,0,.73E-6,0
COSMOS 2518,2017-027A,2026-06-05T03:28:41.222784,2.00855240,.69789841,63.0507,249.8401,273.6626,15.9408,0,U,42719,999,6616,0,-.105E-4,0
QZS-2 (MICHIBIKI-2),2017-028A,2026-06-05T12:36:28.614816,1.00287038,.07605892,39.4451,243.3265,269.1343,71.7999,0,U,42738,999,750,0,-.153E-5,0
VIASAT-2,2017-029A,2026-06-05T13:11:02.374656,1.00271951,.00004065,0.0180,291.6831,147.0218,303.1536,0,U,42740,999,3308,0,-.253E-5,0
EUTELSAT 172B,2017-029B,2026-06-05T13:40:57.453888,1.00270387,.00001273,0.0118,87.6965,37.1820,146.3676,0,U,42741,999,3362,0,.7E-7,0
GSAT-19,2017-031A,2026-06-06T00:07:38.923104,1.00270662,.0007056,0.1041,91.1635,348.1658,224.8788,0,U,42747,999,3303,0,.138E-5,0
ECHOSTAR 21,2017-032A,2026-06-05T20:24:38.810880,1.00270510,.0002422,1.7720,354.9477,82.9956,132.7718,0,U,42749,999,3298,0,.77E-6,0
HXMT (HUIYAN),2017-034A,2026-06-06T05:09:20.892096,15.18395354,.0030193,43.0133,244.1361,74.6102,285.8079,0,U,42758,999,49599,.28754E-3,.5851E-4,0
CARTOSAT-2E,2017-036C,2026-06-06T04:14:49.484832,15.19235324,.0003304,97.4275,217.1602,4.8708,355.2558,0,U,42767,999,49647,.27436E-3,.5714E-4,0
BULGARIASAT-1,2017-038A,2026-06-05T06:40:56.661312,1.00276476,.00037876,0.0637,89.0627,356.0870,270.7040,0,U,42801,999,3272,0,.24E-6,0
IRIDIUM 113,2017-039A,2026-06-05T20:50:03.202368,14.34217088,.0002296,86.3961,326.9118,89.1201,271.0258,0,U,42803,999,46956,.18408E-4,.71E-6,0
IRIDIUM 123,2017-039B,2026-06-05T11:46:58.908576,14.34217619,.00021217,86.3974,358.5277,82.9602,277.1835,0,U,42804,999,46827,.20122258E-4,.76E-6,0
IRIDIUM 120,2017-039C,2026-06-05T20:40:54.323040,14.34222861,.0002018,86.3952,326.6983,93.7182,266.4245,0,U,42805,999,46955,.91212E-4,.275E-5,0
IRIDIUM 115,2017-039D,2026-06-05T11:18:13.480704,14.43282388,.0002078,86.4491,326.9892,85.2188,274.9250,0,U,42806,999,47257,.89757396E-4,.322E-5,0
IRIDIUM 118,2017-039E,2026-06-05T12:32:38.971392,14.34217254,.00021071,86.3970,358.5125,87.8106,272.3331,0,U,42807,999,46827,-.13563122E-4,-.18E-6,0
IRIDIUM 117,2017-039F,2026-06-05T19:41:54.939264,14.34217403,.00020806,86.3969,358.3457,85.9374,274.2059,0,U,42808,999,46834,-.10431093E-4,-.9E-7,0
IRIDIUM 126,2017-039G,2026-06-05T11:56:06.798624,14.34217668,.0002277,86.3977,358.5319,84.8058,275.3397,0,U,42809,999,46827,.60178E-4,.188E-5,0
IRIDIUM 124,2017-039H,2026-06-05T19:41:56.679360,14.43277328,.0002139,86.4474,295.1131,88.5352,271.6094,0,U,42810,999,47347,-.31713E-3,-.1046E-4,0
IRIDIUM 128,2017-039J,2026-06-05T08:21:50.673888,14.34217586,.00018891,86.3974,30.0999,85.1908,274.9504,0,U,42811,999,46828,-.1387407E-5,.16E-6,0
IRIDIUM 121,2017-039K,2026-06-05T12:23:30.922368,14.34217644,.0002004,86.3969,358.5512,91.2120,268.9305,0,U,42812,999,46815,.27681E-4,.97E-6,0
HELLAS-SAT 3,2017-040A,2026-06-06T00:15:38.646144,1.00272712,.0004838,0.0516,50.1559,359.6249,247.5612,0,U,42814,999,3269,0,.165E-5,0
GSAT-17,2017-040B,2026-06-05T23:35:38.580288,1.00270803,.0001643,0.0980,88.6349,215.2757,37.9172,0,U,42815,999,3267,0,-.245E-5,0
INTELSAT 35E (IS-35E),2017-041A,2026-06-05T21:54:29.242080,1.00273587,.0001928,0.0114,34.2311,39.7268,114.5186,0,U,42818,999,3270,0,-.225E-5,0
KANOPUS-V-IK,2017-042A,2026-06-06T04:29:58.347168,15.22928115,.0001824,97.3585,62.9352,84.7747,275.3698,0,U,42825,999,49369,.12127E-3,.2776E-4,0
NORSAT 1,2017-042B,2026-06-05T10:37:07.259232,15.13930019,.00084432,97.4440,324.4223,119.4457,240.7618,0,U,42826,999,48545,.37436259E-3,.6725E-4,0
